SUOMI NPP               
1 37849U 11061A   26131.89914315  .00000032  00000+0  36388-4 0  9999
2 37849  98.7940  73.0269 0002834  76.2845 283.8646 14.19509456753293
YAOGAN-12               
1 37875U 11066B   26131.94656932  .00004295  00000+0  16891-3 0  9998
2 37875  97.1181 172.2255 0009835   6.2082 353.9277 15.26121949806512
BEIDOU-2 M4             
1 38251U 12018B   26128.92300840 -.00000036  00000+0  00000+0 0  9994
2 38251  55.6931 305.4151 0010883 282.3733  77.4996  1.86229854 95211
ARIRANG-3 (KOMPSAT-3)   
1 38338U 12025B   26131.90091413  .00000251  00000+0  59092-4 0  9991
2 38338  98.1155  89.9935 0004369 217.4068 142.6830 14.62173580746041
METOP-B                 
1 38771U 12049A   26131.93795537  .00000056  00000+0  45234-4 0  9995
2 38771  98.6529 184.1555 0003520  94.3312 265.8268 14.21422349708114
SJ-9A                   
1 38860U 12056A   26131.92384991  .00000774  00000+0  95451-4 0  9992
2 38860  97.6688 105.1952 0026134  20.2406 339.9840 14.85394031694209
COSMOS 2484 (RODNIK-S 6)
1 39059U 13001C   26131.92391926 -.00000088  00000+0 -70597-3 0  9993
2 39059  82.5015 244.4356 0027531 112.9188 247.4802 12.42937923604059
SARAL                   
1 39086U 13009A   26131.93833290  .00000051  00000+0  34840-4 0  9997
2 39086  98.5563 318.9645 0002652  54.5138 305.6294 14.32846908690415
STRAND-1                
1 39090U 13009E   26131.50430227  .00000179  00000+0  74739-4 0  9990
2 39090  98.3917 312.6434 0008294 349.0918  11.0088 14.37141086691795
BRITE-AUSTRIA           
1 39091U 13009F   26131.43178424  .00000110  00000+0  51969-4 0  9996
2 39091  98.3988 311.7791 0010037 357.0743   3.0383 14.36527080691771
GAOFEN-1                
1 39150U 13018A   26131.94302590 -.00000141  00000+0 -12866-4 0  9990
2 39150  97.9100 204.7442 0017711  27.3699 332.8440 14.76533481702894
NEE-01 PEGASO           
1 39151U 13018B   26131.88726024  .00001820  00000+0  17871-3 0  9999
2 39151  98.1175 274.8535 0011183 285.1037  74.8945 14.93480823705287
PROBA-V                 
1 39159U 13021A   26131.92239581  .00000044  00000+0  37549-4 0  9995
2 39159  98.3569 112.3238 0003160 228.7045 131.3863 14.23589090675955
ARIRANG-5 (KOMPSAT-5)   
1 39227U 13042A   26131.98541347  .00001355  00000+0  10097-3 0  9990
2 39227  97.6223 319.1940 0001838 258.8276 101.2743 15.04563439698415
GONETS-M 5              
1 39249U 13048A   26131.89134998  .00000025  00000+0  10663-3 0  9992
2 39249  82.4859   6.0124 0015849 294.9311  65.0121 12.42890772574377
GONETS-M 7              
1 39251U 13048C   26131.93546698 -.00000072  00000+0 -58672-3 0  9990
2 39251  82.4926   8.8877 0016691 296.1045  63.8317 12.42913284574337
FENGYUN 3C              
1 39260U 13052A   26131.92950422  .00000045  00000+0  43696-4 0  9997
2 39260  98.4962 107.4743 0015600 124.9833 235.2809 14.15746428653430
CASSIOPE                
1 39265U 13055A   26131.91119916  .00020702 -61812-6  23605-3 0  9994
2 39265  80.9129 110.6696 0301214 184.0208 175.8607 15.22537784662146
APRIZESAT 7             
1 39416U 13066A   26131.85983612  .00000744  00000+0  79271-4 0  9998
2 39416  97.7686  85.6094 0035165 334.2167  25.7297 14.91479150675816
ZACUBE-1 (TSHEPISOSAT)  
1 39417U 13066B   26131.87676368  .00002959  00000+0  23309-3 0  9998
2 39417  97.8119  94.0169 0042031  15.3524 344.8964 15.00902822675285
APRIZESAT 8             
1 39425U 13066K   26131.81948053  .00000715  00000+0  83371-4 0  9998
2 39425  97.8200  79.8025 0047125  46.9391 313.5756 14.87572066674264
