OBJECT_NAME,OBJECT_ID,EPOCH,MEAN_MOTION,ECCENTRICITY,INCLINATION,RA_OF_ASC_NODE,ARG_OF_PERICENTER,MEAN_ANOMALY,EPHEMERIS_TYPE,CLASSIFICATION_TYPE,NORAD_CAT_ID,ELEMENT_SET_NO,REV_AT_EPOCH,BSTAR,MEAN_MOTION_DOT,MEAN_MOTION_DDOT
SUOMI NPP,2011-061A,2026-05-11T21:34:45.968160,14.19509456,.00028349,98.7940,73.0269,76.2845,283.8646,0,U,37849,999,75329,.36388226E-4,.32E-6,0
YAOGAN-12,2011-066B,2026-05-11T22:43:03.589248,15.26121949,.00098358,97.1181,172.2255,6.2082,353.9277,0,U,37875,999,80651,.16890737E-3,.4295E-4,0
BEIDOU-2 M4,2012-018B,2026-05-08T22:09:07.925760,1.86229854,.00108839,55.6931,305.4151,282.3733,77.4996,0,U,38251,999,9521,0,-.36E-6,0
ARIRANG-3 (KOMPSAT-3),2012-025B,2026-05-11T21:37:18.980832,14.62173580,.00043697,98.1155,89.9935,217.4068,142.6830,0,U,38338,999,74604,.59092E-4,.251E-5,0
METOP-B,2012-049A,2026-05-11T22:30:39.343968,14.21422349,.000352,98.6529,184.1555,94.3312,265.8268,0,U,38771,999,70811,.45233853E-4,.56E-6,0
SJ-9A,2012-056A,2026-05-11T22:10:20.632224,14.85394031,.00261341,97.6688,105.1952,20.2406,339.9840,0,U,38860,999,69420,.95451008E-4,.774E-5,0
COSMOS 2484 (RODNIK-S 6),2013-001C,2026-05-11T22:10:26.624064,12.42937923,.00275318,82.5015,244.4356,112.9188,247.4802,0,U,39059,999,60405,-.70596747E-3,-.88E-6,0
SARAL,2013-009A,2026-05-11T22:31:11.962560,14.32846908,.00026521,98.5563,318.9645,54.5138,305.6294,0,U,39086,999,69041,.34840268E-4,.51E-6,0
STRAND-1,2013-009E,2026-05-11T12:06:11.716128,14.37141086,.00082946,98.3917,312.6434,349.0918,11.0088,0,U,39090,999,69179,.74739087E-4,.179E-5,0
BRITE-AUSTRIA,2013-009F,2026-05-11T10:21:46.158336,14.36527080,.00100374,98.3988,311.7791,357.0743,3.0383,0,U,39091,999,69177,.51969053E-4,.11E-5,0
GAOFEN-1,2013-018A,2026-05-11T22:37:57.437760,14.76533481,.00177113,97.9100,204.7442,27.3699,332.8440,0,U,39150,999,70289,-.1286568E-4,-.141E-5,0
NEE-01 PEGASO,2013-018B,2026-05-11T21:17:39.284736,14.93480823,.00111833,98.1175,274.8535,285.1037,74.8945,0,U,39151,999,70528,.17871265E-3,.182E-4,0
PROBA-V,2013-021A,2026-05-11T22:08:14.997984,14.23589090,.00031602,98.3569,112.3238,228.7045,131.3863,0,U,39159,999,67595,.37548657E-4,.44E-6,0
ARIRANG-5 (KOMPSAT-5),2013-042A,2026-05-11T23:38:59.723808,15.04563439,.00018387,97.6223,319.1940,258.8276,101.2743,0,U,39227,999,69841,.10097258E-3,.1355E-4,0
GONETS-M 5,2013-048A,2026-05-11T21:23:32.638272,12.42890772,.00158494,82.4859,6.0124,294.9311,65.0121,0,U,39249,999,57437,.10662904E-3,.25E-6,0
GONETS-M 7,2013-048C,2026-05-11T22:27:04.347072,12.42913284,.0016691,82.4926,8.8877,296.1045,63.8317,0,U,39251,999,57433,-.58672276E-3,-.72E-6,0
FENGYUN 3C,2013-052A,2026-05-11T22:18:29.164608,14.15746428,.00156007,98.4962,107.4743,124.9833,235.2809,0,U,39260,999,65343,.43696391E-4,.45E-6,0
CASSIOPE,2013-055A,2026-05-11T21:52:07.607424,15.22537784,.03012149,80.9129,110.6696,184.0208,175.8607,0,U,39265,999,66214,.23605437E-3,.20702E-3,-.618121E-6
APRIZESAT 7,2013-066A,2026-05-11T20:38:09.840768,14.91479150,.00351659,97.7686,85.6094,334.2167,25.7297,0,U,39416,999,67581,.79271131E-4,.744E-5,0
ZACUBE-1 (TSHEPISOSAT),2013-066B,2026-05-11T21:02:32.381952,15.00902822,.0042031,97.8119,94.0169,15.3524,344.8964,0,U,39417,999,67528,.23308599E-3,.2959E-4,0
APRIZESAT 8,2013-066K,2026-05-11T19:40:03.117792,14.87572066,.00471253,97.8200,79.8025,46.9391,313.5756,0,U,39425,999,67426,.83370723E-4,.715E-5,0
